NORAD_CAT_ID,OBJECT_NAME,OBJECT_TYPE,EPOCH,MEAN_MOTION,ECCENTRICITY,INCLINATION,RA_OF_ASC_NODE,ARG_OF_PERICENTER,MEAN_ANOMALY,BSTAR,MEAN_MOTION_DOT,MEAN_MOTION_DDOT,TLE_LINE0,TLE_LINE1,TLE_LINE2,SEMIMAJOR_AXIS,PERIOD,APOGEE,PERIGEE,DECAYED
53606.0,STARLINK-4590,PAYLOAD,2024-06-16 10:09:38,15.08835548,0.0001195,53.2165,188.1004,86.6755,273.4374,0.00014779,2.065e-05,0.0,0 STARLINK-4590,1 53606U 22104U   24168.42336121  .00002065  00000-0  14779-3 0  9996,2 53606  53.2165 188.1004 0001195  86.6755 273.4374 15.08835548100333,6917.894,95.438,540.586,538.932,0.0
53606.0,STARLINK-4590,PAYLOAD,2024-06-17 17:57:21,15.08840301,0.0001213,53.2166,182.1533,86.8406,273.2725,4.7112e-05,4.62e-06,0.0,0 STARLINK-4590,1 53606U 22104U   24169.74816215  .00000462  00000-0  47112-4 0  9996,2 53606  53.2166 182.1533 0001213  86.8406 273.2725 15.08840301100534,6917.879,95.438,540.584,538.905,0.0
53606.0,STARLINK-4590,PAYLOAD,2024-06-18 09:51:12,15.08841129,0.0001162,53.2157,179.1785,85.1725,274.94,7.8574e-05,9.63e-06,0.0,0 STARLINK-4590,1 53606U 22104U   24170.41056083  .00000963  00000-0  78574-4 0  9993,2 53606  53.2157 179.1785 0001162  85.1725 274.9400 15.08841129100063,6917.877,95.437,540.546,538.938,0.0
53606.0,STARLINK-4590,PAYLOAD,2024-06-18 17:48:07,15.08842661,0.0001163,53.2159,177.6915,84.668,275.4445,8.8544e-05,1.122e-05,0.0,0 STARLINK-4590,1 53606U 22104U   24170.74175908  .00001122  00000-0  88544-4 0  9993,2 53606  53.2159 177.6915 0001163  84.6680 275.4445 15.08842661100683,6917.872,95.437,540.542,538.933,0.0
53606.0,STARLINK-4590,PAYLOAD,2024-06-19 08:06:36,15.0884086,0.0001194,53.216,175.0151,85.2502,274.8626,8.2367e-05,1.023e-05,0.0,0 STARLINK-4590,1 53606U 22104U   24171.33792035  .00001023  00000-0  82367-4 0  9992,2 53606  53.2160 175.0151 0001194  85.2502 274.8626 15.08840860100776,6917.878,95.438,540.569,538.917,0.0
53606.0,STARLINK-4590,PAYLOAD,2024-06-19 17:38:54,15.08842685,0.0001197,53.2161,173.231,84.7309,275.382,8.2444e-05,1.025e-05,0.0,0 STARLINK-4590,1 53606U 22104U   24171.73535875  .00001025  00000-0  82444-4 0  9991,2 53606  53.2161 173.2310 0001197  84.7309 275.3820 15.08842685100269,6917.872,95.437,540.565,538.909,0.0
53606.0,STARLINK-4590,PAYLOAD,2024-06-20 04:46:37,15.08837819,0.0001245,53.2162,171.1499,84.8768,275.2366,2.3312e-05,8.3e-07,0.0,0 STARLINK-4590,1 53606U 22104U   24172.19904348  .00000083  00000-0  23312-4 0  9999,2 53606  53.2162 171.1499 0001245  84.8768 275.2366 15.08837819100334,6917.887,95.438,540.613,538.891,0.0
53606.0,STARLINK-4590,PAYLOAD,2024-06-20 06:22:00,15.08839219,0.0001208,53.216,170.8522,86.9542,273.1588,1.9633e-05,2.5e-07,0.0,0 STARLINK-4590,1 53606U 22104U   24172.26528245  .00000025  00000-0  19633-4 0  9992,2 53606  53.2160 170.8522 0001208  86.9542 273.1588 15.08839219100910,6917.883,95.438,540.583,538.912,0.0
53606.0,STARLINK-4590,PAYLOAD,2024-06-21 09:23:33,15.08840386,0.000129,53.2169,165.7966,92.415,267.6989,3.0251e-05,1.94e-06,0.0,0 STARLINK-4590,1 53606U 22104U   24173.39136108  .00000194  00000-0  30251-4 0  9996,2 53606  53.2169 165.7966 0001290  92.4150 267.6989 15.08840386100518,6917.879,95.438,540.637,538.852,0.0
53606.0,STARLINK-4590,PAYLOAD,2024-06-22 09:14:20,15.08837777,0.0001252,53.2167,161.3357,91.6975,268.4161,4.0002e-05,3.49e-06,0.0,0 STARLINK-4590,1 53606U 22104U   24174.38496404  .00000349  00000-0  40002-4 0  9991,2 53606  53.2167 161.3357 0001252  91.6975 268.4161 15.08837777101237,6917.887,95.438,540.618,538.886,0.0
53606.0,STARLINK-4590,PAYLOAD,2024-06-23 04:18:58,15.08836339,0.0001234,53.217,157.7671,90.8321,269.2813,3.2728e-05,2.33e-06,0.0,0 STARLINK-4590,1 53606U 22104U   24175.17984644  .00000233  00000-0  32728-4 0  9995,2 53606  53.2170 157.7671 0001234  90.8321 269.2813 15.08836339100780,6917.892,95.438,540.61,538.903,0.0
53606.0,STARLINK-4590,PAYLOAD,2024-06-23 21:48:13,15.08836196,0.0001235,53.2171,154.4967,88.7066,271.4067,6.2338e-05,7.04e-06,0.0,0 STARLINK-4590,1 53606U 22104U   24175.90848744  .00000704  00000-0  62338-4 0  9999,2 53606  53.2171 154.4967 0001235  88.7066 271.4067 15.08836196101469,6917.892,95.438,540.611,538.903,0.0
53606.0,STARLINK-4590,PAYLOAD,2024-06-24 08:55:55,15.08840599,0.0001228,53.2169,152.4153,95.46,264.6532,6.0047e-05,6.68e-06,0.0,0 STARLINK-4590,1 53606U 22104U   24176.37216490  .00000668  00000-0  60047-4 0  9992,2 53606  53.2169 152.4153 0001228  95.4600 264.6532 15.08840599100969,6917.879,95.438,540.593,538.894,0.0
53606.0,STARLINK-4590,PAYLOAD,2024-06-25 10:22:05,15.08839302,0.0001265,53.2168,147.6571,100.7,259.4135,6.4303e-05,7.36e-06,0.0,0 STARLINK-4590,1 53606U 22104U   24177.43200678  .00000736  00000-0  64303-4 0  9996,2 53606  53.2168 147.6571 0001265 100.7000 259.4135 15.08839302101123,6917.883,95.438,540.623,538.872,0.0
53606.0,STARLINK-4590,PAYLOAD,2024-06-26 05:26:43,15.08841381,0.0001273,53.2165,144.0885,102.4755,257.638,4.976e-05,5.04e-06,0.0,0 STARLINK-4590,1 53606U 22104U   24178.22688664  .00000504  00000-0  49760-4 0  9992,2 53606  53.2165 144.0885 0001273 102.4755 257.6380 15.08841381101812,6917.876,95.437,540.622,538.861,0.0
53606.0,STARLINK-4590,PAYLOAD,2024-06-27 03:42:07,15.0883991,0.0001299,53.2165,139.9251,97.543,262.5709,5.5859e-05,6.01e-06,0.0,0 STARLINK-4590,1 53606U 22104U   24179.15424868  .00000601  00000-0  55859-4 0  9993,2 53606  53.2165 139.9251 0001299  97.5430 262.5709 15.08839910101381,6917.881,95.438,540.644,538.847,0.0
53606.0,STARLINK-4590,PAYLOAD,2024-06-28 03:32:53,15.08843886,0.0001302,53.2163,135.4624,87.8905,272.2236,7.6253e-05,9.26e-06,0.0,0 STARLINK-4590,1 53606U 22104U   24180.14784628  .00000926  00000-0  76253-4 0  9998,2 53606  53.2163 135.4624 0001302  87.8905 272.2236 15.08843886102109,6917.869,95.437,540.634,538.833,0.0
53606.0,STARLINK-4590,PAYLOAD,2024-06-29 03:23:41,15.08842074,0.0001281,53.216,131.0058,103.5113,256.6022,6.0307e-05,6.72e-06,0.0,0 STARLINK-4590,1 53606U 22104U   24181.14144687  .00000672  00000-0  60307-4 0  9995,2 53606  53.2160 131.0058 0001281 103.5113 256.6022 15.08842074101681,6917.874,95.437,540.625,538.853,0.0
53606.0,STARLINK-4590,PAYLOAD,2024-06-29 06:34:27,15.08843703,0.0001322,53.2163,130.4097,102.9879,257.1261,7.3026e-05,8.75e-06,0.0,0 STARLINK-4590,1 53606U 22104U   24181.27392562  .00000875  00000-0  73026-4 0  9993,2 53606  53.2163 130.4097 0001322 102.9879 257.1261 15.08843703102275,6917.869,95.437,540.649,538.82,0.0
53606.0,STARLINK-4590,PAYLOAD,2024-06-30 03:14:29,15.08828532,0.0001248,53.2164,126.545,94.8462,265.2673,-3.825e-05,-8.96e-06,0.0,0 STARLINK-4590,1 53606U 22104U   24182.13506152 -.00000896  00000-0 -38250-4 0  9996,2 53606  53.2164 126.5450 0001248  94.8462 265.2673 15.08828532101830,6917.915,95.438,540.644,538.917,0.0
53606.0,STARLINK-4590,PAYLOAD,2024-06-30 12:46:47,15.08836165,0.0001466,53.2177,124.7611,85.6995,274.4165,1.7637e-06,-2.6e-06,0.0,0 STARLINK-4590,1 53606U 22104U   24182.53249769 -.00000260  00000-0  17637-5 0  9999,2 53606  53.2177 124.7611 0001466  85.6995 274.4165 15.08836165102463,6917.892,95.438,540.771,538.743,0.0
53606.0,STARLINK-4590,PAYLOAD,2024-07-01 03:05:15,15.08840012,0.0001383,53.2175,122.0887,99.821,260.2938,5.2891e-05,5.54e-06,0.0,0 STARLINK-4590,1 53606U 22104U   24183.12865619  .00000554  00000-0  52891-4 0  9998,2 53606  53.2175 122.0887 0001383  99.8210 260.2938 15.08840012102559,6917.88,95.438,540.702,538.789,0.0
53606.0,STARLINK-4590,PAYLOAD,2024-07-02 02:56:03,15.08830886,0.0001383,53.2171,117.6274,97.9944,262.1205,0.00015968,2.254e-05,0.0,0 STARLINK-4590,1 53606U 22104U   24184.12226196  .00002254  00000-0  15968-3 0  9992,2 53606  53.2171 117.6274 0001383  97.9944 262.1205 15.08830886102138,6917.908,95.438,540.73,538.817,0.0
53606.0,STARLINK-4590,PAYLOAD,2024-07-02 12:28:21,15.08837134,0.0001281,53.2166,115.8414,85.6356,274.4783,0.0001944,2.807e-05,0.0,0 STARLINK-4590,1 53606U 22104U   24184.51969859  .00002807  00000-0  19440-3 0  9998,2 53606  53.2166 115.8414 0001281  85.6356 274.4783 15.08837134102765,6917.889,95.438,540.64,538.868,0.0
53606.0,STARLINK-4590,PAYLOAD,2024-07-03 04:22:13,15.08844434,0.0001183,53.2163,112.8668,97.0802,263.0325,6.1325e-05,6.88e-06,0.0,0 STARLINK-4590,1 53606U 22104U   24185.18209804  .00000688  00000-0  61325-4 0  9994,2 53606  53.2163 112.8668 0001183  97.0802 263.0325 15.08844434102299,6917.867,95.437,540.55,538.913,0.0
53606.0,STARLINK-4590,PAYLOAD,2024-07-03 12:19:08,15.08851127,0.0001384,53.217,111.3793,75.3007,284.8139,0.00013383,1.843e-05,0.0,0 STARLINK-4590,1 53606U 22104U   24185.51329172  .00001843  00000-0  13383-3 0  9996,2 53606  53.2170 111.3793 0001384  75.3007 284.8139 15.08851127102346,6917.846,95.437,540.669,538.754,0.0
53606.0,STARLINK-4590,PAYLOAD,2024-07-04 04:13:00,15.08839383,0.0001456,53.217,108.4064,82.3092,277.8065,2.9142e-05,1.76e-06,0.0,0 STARLINK-4590,1 53606U 22104U   24186.17570153  .00000176  00000-0  29142-4 0  9995,2 53606  53.2170 108.4064 0001456  82.3092 277.8065 15.08839383102447,6917.882,95.438,540.755,538.74,0.0
53606.0,STARLINK-4590,PAYLOAD,2024-07-04 12:09:55,15.08848668,0.0001522,53.2178,106.9213,84.7844,275.3322,9.4492e-05,1.217e-05,0.0,0 STARLINK-4590,1 53606U 22104U   24186.50689339  .00001217  00000-0  94492-4 0  9996,2 53606  53.2178 106.9213 0001522  84.7844 275.3322 15.08848668102499,6917.854,95.437,540.772,538.666,0.0
53606.0,STARLINK-4590,PAYLOAD,2024-07-04 23:17:38,15.08836518,0.0001484,53.2189,104.8357,96.7654,263.3507,0.00011375,1.523e-05,0.0,0 STARLINK-4590,1 53606U 22104U   24186.97058082  .00001523  00000-0  11375-3 0  9990,2 53606  53.2189 104.8357 0001484  96.7654 263.3507 15.08836518103131,6917.891,95.438,540.783,538.729,0.0
53606.0,STARLINK-4590,PAYLOAD,2024-07-05 04:03:47,15.08845081,0.0001462,53.2177,103.9414,101.4194,258.6962,5.346e-05,5.63e-06,0.0,0 STARLINK-4590,1 53606U 22104U   24187.16929613  .00000563  00000-0  53460-4 0  9994,2 53606  53.2177 103.9414 0001462 101.4194 258.6962 15.08845081102597,6917.865,95.437,540.741,538.718,0.0
